#aV2008  1  2  0  0   .00000000      96 DD+AD WGS84 FIT  NGA
## 1460 259200.00000000   900.00000000 54467  .0000000000000
+   32     1  2  3  4  5  6  7  8  9 10 11 12 13 14 15 16 17
+         18 19 20 21 22 23 24 25 26 27 28 29 30 31 32  0  0
+          0  0  0  0  0  0  0  0  0  0  0  0  0  0  0  0  0
+          0  0  0  0  0  0  0  0  0  0  0  0  0  0  0  0  0
+          0  0  0  0  0  0  0  0  0  0  0  0  0  0  0  0  0
++         0  0  0  0  0  0  0  0  0  0  0  0  0  0  0  0  0
++         0  0  0  0  0  0  0  0  0  0  0  0  0  0  0  0  0
++         0  0  0  0  0  0  0  0  0  0  0  0  0  0  0  0  0
++         0  0  0  0  0  0  0  0  0  0  0  0  0  0  0  0  0
++         0  0  0  0  0  0  0  0  0  0  0  0  0  0  0  0  0
%c cc cc ccc ccc cccc cccc cccc cccc ccccc ccccc ccccc ccccc
%c cc cc ccc ccc cccc cccc cccc cccc ccccc ccccc ccccc ccccc
%f  0.0000000  0.000000000  0.00000000000  0.000000000000000
%f  0.0000000  0.000000000  0.00000000000  0.000000000000000
%i    0    0    0    0      0      0      0      0         0
%i    0    0    0    0      0      0      0      0         0
/*      NGA, ST. LOUIS,MO.                                  
/*   EPHEMERIS COMPUTED FROM  3 DAYS OF DATA                
/* CCCCCCCCCCCCCCCCCCCCCCCCCCCCCCCCCCCCCCCCCCCCCCCCCCCCCCCCC
/* CCCCCCCCCCCCCCCCCCCCCCCCCCCCCCCCCCCCCCCCCCCCCCCCCCCCCCCCC
*  2008  1  2 10 30   .00000000                                                 
P  1  15182.169318 -11098.374028 -18502.555874    176.391927                    
V  1  -4582.043062  23495.268695 -17713.536897       .023071                    
P  2 -22362.432043  12617.999455   5914.400880    163.090451                    
V  2  -8558.113195   -639.093127 -30369.934638       .029510                    
P  3  11158.151309 -20212.029891  12575.638371    167.005056                    
V  3   2105.492723  16808.244901  25012.361727       .054317                    
P  4 -25826.061621   4804.780107  -5180.120936    -45.554851                    
V  4   5129.896515  -4840.645162 -30227.206563      -.055424                    
P  5  13010.609592  20023.232228 -12038.795588    627.499838                    
V  5 -13662.576953  -6453.931020 -25929.418931       .182271                    
P  6   8801.807323  19735.881233  15605.151780    168.361950                    
V  6  -5302.270663  19020.096706 -21332.057419      -.142697                    
P  7  11417.251323  16231.666775  17975.796101     22.364025                    
V  7  -4581.012972  21870.417054 -17183.033995       .345762                    
P  8 -23685.483601  -1547.081082  12295.625360   -135.624194                    
V  8  14488.328887  -5847.859101  26516.921044      -.014443                    
P  9  -3185.215567  16721.011055 -20960.806614    103.777857                    
V  9 -23793.623975   8494.403303  10884.010049       .016962                    
P 10 -10413.747144  10861.495556  21765.966908   -193.567715                    
V 10 -20808.900197 -18607.071717   -342.816888      -.132310                    
P 11   -982.043855 -17805.022154 -19754.430362     26.872135                    
V 11  22646.088510 -11094.973365   9266.068558       .000681                    
P 12   7487.165726  20388.374180 -15246.235691   -353.128914                    
V 12 -16057.414630 -11211.567115 -22671.804137      -.010450                    
P 13  -7611.926808 -18168.812296  17726.470318    231.725992                    
V 13   6120.513935 -21811.915183 -19585.792134       .023111                    
P 14  14607.211630   1064.306578 -22049.912890   -308.643167                    
V 14  -5701.360846  27590.174387  -2523.707647       .028250                    
P 15  -6469.959577  25623.899918   2748.122511    -70.749059                    
V 15  -2251.453620  -3903.816552  31415.662780      -.002892                    
P 16  14415.923210  -6943.724328  21300.537796    130.769935                    
V 16  19730.795408  18190.735983  -7280.754424       .010107                    
P 17 -15098.092508  -2170.677716 -21721.392755     45.284504                    
V 17   5190.910938 -27144.594436  -1040.405152      -.007020                    
P 18  19571.159390  18237.614773    139.319319   -215.108728                    
V 18  -1920.723482   2114.362761  31291.971757       .026667                    
P 19   8104.254906 -25107.865378   2249.081984     14.901793                    
V 19   2273.007180   3446.777960  31604.760609       .016956                    
P 20  -9975.317805 -20744.904751 -13399.588209    123.354606                    
V 20  14511.798954   8894.463814 -24723.661576      -.007362                    
P 21  17471.556297   8621.260385  18455.097711     74.310041                    
V 21 -21439.839936   8429.916624  15904.583572      -.006317                    
P 22  21907.700510   8415.386065 -12314.199376    206.280918                    
V 22   9775.300857  12822.627898  25781.973729       .005289                    
P 23    -81.169133 -25466.652441   7040.177088    323.003730                    
V 23   4204.931484  -8437.130249 -30422.956905       .030845                    
P 24   3905.072433  14949.148904  21784.044034     59.030498                    
V 24 -26119.858520   7802.688448   -389.676230       .031549                    
P 25 -10992.127163 -11492.614502  21619.264538    496.888191                    
V 25  23911.043621 -11690.768067   6202.254359       .034616                    
P 26  -8840.043996  24138.412779   4910.224579    143.816054                    
V 26   -661.855026  -7238.100523  32009.254966       .110042                    
P 27 -16968.323558  -7583.453076  19711.889197    158.201178                    
V 27  21305.763929 -10035.327958  14812.612475       .025261                    
P 28 -22214.288055 -11046.953724  -9593.477664    -13.055779                    
V 28  -7814.540338 -10126.865500  28341.993264      -.005952                    
P 29  -1362.334624  25977.656280   5554.118491    -91.572037                    
V 29  -4090.744283   6224.812117 -30678.527205       .125681                    
P 30  17139.863176  19431.137876  -6404.667312     58.396610                    
V 30  -7868.640728  -2463.186334 -29997.356920       .014467                    
P 31  25473.012257  -7113.230341  -2689.996874     -3.781546                    
V 31  -2577.532048   3666.809595 -31569.407097      -.014338                    
P 32  18565.909878    863.337053 -18448.824658    190.110227                    
V 32  16086.694935  18434.298726  16796.378412       .111709                    
EOF
